start=new Date('2022-12-16T00:00:00.000Z').valueOf();
sats=[{"CLASSIFICATION_TYPE":"U","MEAN_ANOMALY":"326.1238","TIME_SYSTEM":"UTC","MEAN_MOTION":"15.08852447","RCS_SIZE":"LARGE","OBJECT_ID":"2022-083AS","ECCENTRICITY":"0.00021640","TLE_LINE1":"1 53172U 22083AS  22349.65243053  .00005328  00000-0  35247-3 0  9993","LAUNCH_DATE":"2022-07-17","MEAN_ELEMENT_THEORY":"SGP4","PERIAPSIS":"538.210","INCLINATION":"53.2182","PERIOD":"95.437","RA_OF_ASC_NODE":"56.5091","SITE":"AFETR","MEAN_MOTION_DDOT":"0.0000000000000","ELEMENT_SET_NO":"999","SEMIMAJOR_AXIS":"6917.842","EPOCH":"2022-12-15T15:39:29.997792","OBJECT_NAME":"STARLINK-4299","BSTAR":"0.00035247000000","ARG_OF_PERICENTER":"33.9893","EPHEMERIS_TYPE":"0","REV_AT_EPOCH":"2327","DECAY_DATE":null,"APOAPSIS":"541.204","FILE":"3702726","MEAN_MOTION_DOT":"0.00005328","TLE_LINE2":"2 53172  53.2182  56.5091 0002164  33.9893 326.1238 15.08852447 23278","GP_ID":"220531081","OBJECT_TYPE":"PAYLOAD","COUNTRY_CODE":"US","CENTER_NAME":"EARTH","NORAD_CAT_ID":"53172","REF_FRAME":"TEME"},{"NORAD_CAT_ID":"53173","REF_FRAME":"TEME","CENTER_NAME":"EARTH","COUNTRY_CODE":"US","GP_ID":"220531293","TLE_LINE2":"2 53173  53.2168  35.5629 0001585  58.7999 301.3149 15.08847682 23580","OBJECT_TYPE":"PAYLOAD","APOAPSIS":"540.818","DECAY_DATE":null,"FILE":"3702726","MEAN_MOTION_DOT":"0.00001308","EPHEMERIS_TYPE":"0","ARG_OF_PERICENTER":"58.7999","REV_AT_EPOCH":"2358","EPOCH":"2022-12-15T20:44:11.446368","OBJECT_NAME":"STARLINK-4300","BSTAR":"0.00010027000000","ELEMENT_SET_NO":"999","SEMIMAJOR_AXIS":"6917.857","MEAN_MOTION_DDOT":"0.0000000000000","SITE":"AFETR","PERIOD":"95.437","RA_OF_ASC_NODE":"35.5629","MEAN_ELEMENT_THEORY":"SGP4","PERIAPSIS":"538.625","INCLINATION":"53.2168","OBJECT_ID":"2022-083AT","ECCENTRICITY":"0.00015850","TLE_LINE1":"1 53173U 22083AT  22349.86402137  .00001308  00000-0  10027-3 0  9990","LAUNCH_DATE":"2022-07-17","RCS_SIZE":"LARGE","MEAN_MOTION":"15.08847682","TIME_SYSTEM":"UTC","CLASSIFICATION_TYPE":"U","MEAN_ANOMALY":"301.3149"},{"OBJECT_TYPE":"PAYLOAD","TLE_LINE2":"2 53174  53.2204  71.6367 0001783  35.2618 324.8492 15.08840394 23067","GP_ID":"220530230","CENTER_NAME":"EARTH","COUNTRY_CODE":"US","REF_FRAME":"TEME","NORAD_CAT_ID":"53174","SEMIMAJOR_AXIS":"6917.879","ELEMENT_SET_NO":"999","BSTAR":"0.00021882000000","OBJECT_NAME":"STARLINK-4205","EPOCH":"2022-12-15T15:01:41.319552","REV_AT_EPOCH":"2306","EPHEMERIS_TYPE":"0","ARG_OF_PERICENTER":"35.2618","FILE":"3702726","MEAN_MOTION_DOT":"0.00003196","DECAY_DATE":null,"APOAPSIS":"540.978","INCLINATION":"53.2204","MEAN_ELEMENT_THEORY":"SGP4","PERIAPSIS":"538.511","PERIOD":"95.438","RA_OF_ASC_NODE":"71.6367","MEAN_MOTION_DDOT":"0.0000000000000","SITE":"AFETR","MEAN_ANOMALY":"324.8492","CLASSIFICATION_TYPE":"U","TIME_SYSTEM":"UTC","MEAN_MOTION":"15.08840394","RCS_SIZE":"LARGE","ECCENTRICITY":"0.00017830","TLE_LINE1":"1 53174U 22083AU  22349.62617268  .00003196  00000-0  21882-3 0  9996","LAUNCH_DATE":"2022-07-17","OBJECT_ID":"2022-083AU"},{"CENTER_NAME":"EARTH","COUNTRY_CODE":"US","REF_FRAME":"TEME","NORAD_CAT_ID":"53175","OBJECT_TYPE":"PAYLOAD","GP_ID":"220530443","TLE_LINE2":"2 53175  53.2183  71.6544 0002170  31.7854 328.3269 15.08837495 23064","EPHEMERIS_TYPE":"0","ARG_OF_PERICENTER":"31.7854","REV_AT_EPOCH":"2306","MEAN_MOTION_DOT":"0.00001319","FILE":"3702726","APOAPSIS":"541.254","DECAY_DATE":null,"ELEMENT_SET_NO":"999","SEMIMAJOR_AXIS":"6917.888","OBJECT_NAME":"STARLINK-4292","BSTAR":"0.00010099000000","EPOCH":"2022-12-15T14:56:23.548128","RA_OF_ASC_NODE":"71.6544","PERIOD":"95.438","MEAN_MOTION_DDOT":"0.0000000000000","SITE":"AFETR","INCLINATION":"53.2183","MEAN_ELEMENT_THEORY":"SGP4","PERIAPSIS":"538.252","MEAN_MOTION":"15.08837495","RCS_SIZE":"LARGE","TLE_LINE1":"1 53175U 22083AV  22349.62249477  .00001319  00000-0  10099-3 0  9993","ECCENTRICITY":"0.00021700","LAUNCH_DATE":"2022-07-17","OBJECT_ID":"2022-083AV","MEAN_ANOMALY":"328.3269","CLASSIFICATION_TYPE":"U","TIME_SYSTEM":"UTC"},{"REV_AT_EPOCH":"2341","EPHEMERIS_TYPE":"0","ARG_OF_PERICENTER":"37.6763","MEAN_MOTION_DOT":"0.00000605","FILE":"3702726","DECAY_DATE":null,"APOAPSIS":"541.210","SEMIMAJOR_AXIS":"6917.874","ELEMENT_SET_NO":"999","BSTAR":"0.00005614300000","OBJECT_NAME":"STARLINK-4294","EPOCH":"2022-12-15T15:14:19.827744","COUNTRY_CODE":"US","CENTER_NAME":"EARTH","REF_FRAME":"TEME","NORAD_CAT_ID":"53176","OBJECT_TYPE":"PAYLOAD","GP_ID":"220531506","TLE_LINE2":"2 53176  53.2191  46.5838 0002126  37.6763 322.4378 15.08842070 23416","MEAN_MOTION":"15.08842070","RCS_SIZE":"LARGE","ECCENTRICITY":"0.00021260","TLE_LINE1":"1 53176U 22083AW  22349.63495171  .00000605  00000-0  56143-4 0  9997","LAUNCH_DATE":"2022-07-17","OBJECT_ID":"2022-083AW","MEAN_ANOMALY":"322.4378","CLASSIFICATION_TYPE":"U","TIME_SYSTEM":"UTC","RA_OF_ASC_NODE":"46.5838","PERIOD":"95.437","SITE":"AFETR","MEAN_MOTION_DDOT":"0.0000000000000","INCLINATION":"53.2191","MEAN_ELEMENT_THEORY":"SGP4","PERIAPSIS":"538.268"},{"CENTER_NAME":"EARTH","COUNTRY_CODE":"US","NORAD_CAT_ID":"53177","REF_FRAME":"TEME","TLE_LINE2":"2 53177  53.2166  35.5950 0001550  65.6031 294.5123 15.08838484 23580","GP_ID":"220531718","OBJECT_TYPE":"PAYLOAD","ARG_OF_PERICENTER":"65.6031","EPHEMERIS_TYPE":"0","REV_AT_EPOCH":"2358","DECAY_DATE":null,"APOAPSIS":"540.822","MEAN_MOTION_DOT":"-0.00000319","FILE":"3702726","ELEMENT_SET_NO":"999","SEMIMAJOR_AXIS":"6917.885","EPOCH":"2022-12-15T20:33:36.645696","OBJECT_NAME":"STARLINK-4298","BSTAR":"-0.00000195990000","RA_OF_ASC_NODE":"35.5950","PERIOD":"95.438","SITE":"AFETR","MEAN_MOTION_DDOT":"0.0000000000000","MEAN_ELEMENT_THEORY":"SGP4","PERIAPSIS":"538.678","INCLINATION":"53.2166","RCS_SIZE":"LARGE","MEAN_MOTION":"15.08838484","OBJECT_ID":"2022-083AX","TLE_LINE1":"1 53177U 22083AX  22349.85667414 -.00000319  00000-0 -19599-5 0  9992","ECCENTRICITY":"0.00015500","LAUNCH_DATE":"2022-07-17","CLASSIFICATION_TYPE":"U","MEAN_ANOMALY":"294.5123","TIME_SYSTEM":"UTC"},{"EPOCH":"2022-12-15T16:22:30.729504","OBJECT_NAME":"STARLINK-4280","BSTAR":"0.00015728000000","ELEMENT_SET_NO":"999","SEMIMAJOR_AXIS":"6917.835","APOAPSIS":"541.754","DECAY_DATE":null,"MEAN_MOTION_DOT":"0.00002217","FILE":"3702726","EPHEMERIS_TYPE":"0","ARG_OF_PERICENTER":"28.4399","REV_AT_EPOCH":"2320","TLE_LINE2":"2 53178  53.2171  61.3739 0002970  28.4399 331.6755 15.08854939 23206","GP_ID":"220530657","OBJECT_TYPE":"PAYLOAD","NORAD_CAT_ID":"53178","REF_FRAME":"TEME","COUNTRY_CODE":"US","CENTER_NAME":"EARTH","TIME_SYSTEM":"UTC","CLASSIFICATION_TYPE":"U","MEAN_ANOMALY":"331.6755","OBJECT_ID":"2022-083AY","LAUNCH_DATE":"2022-07-17","TLE_LINE1":"1 53178U 22083AY  22349.68230011  .00002217  00000-0  15728-3 0  9998","ECCENTRICITY":"0.00029700","RCS_SIZE":"LARGE","MEAN_MOTION":"15.08854939","MEAN_ELEMENT_THEORY":"SGP4","PERIAPSIS":"537.645","INCLINATION":"53.2171","SITE":"AFETR","MEAN_MOTION_DDOT":"0.0000000000000","RA_OF_ASC_NODE":"61.3739","PERIOD":"95.437"},{"OBJECT_TYPE":"PAYLOAD","TLE_LINE2":"2 53179  53.2174  20.8003 0001853  35.6033 103.7041 15.33662943  1301","GP_ID":"220530870","REF_FRAME":"TEME","NORAD_CAT_ID":"53179","COUNTRY_CODE":"US","CENTER_NAME":"EARTH","OBJECT_NAME":"STARLINK-4276","BSTAR":"-0.03771100000000","EPOCH":"2022-12-15T22:00:00.999936","ELEMENT_SET_NO":"999","SEMIMAJOR_AXIS":"6843.032","MEAN_MOTION_DOT":"-0.01135881","FILE":"3702726","APOAPSIS":"466.165","DECAY_DATE":null,"ARG_OF_PERICENTER":"35.6033","EPHEMERIS_TYPE":"0","REV_AT_EPOCH":"130","INCLINATION":"53.2174","MEAN_ELEMENT_THEORY":"SGP4","PERIAPSIS":"463.629","MEAN_MOTION_DDOT":"0.0000000000000","SITE":"AFETR","PERIOD":"93.893","RA_OF_ASC_NODE":"20.8003","TIME_SYSTEM":"UTC","MEAN_ANOMALY":"103.7041","CLASSIFICATION_TYPE":"U","TLE_LINE1":"1 53179U 22083AZ  22349.91667824 -.01135881  00000-0 -37711-1 0  9992","LAUNCH_DATE":"2022-07-17","ECCENTRICITY":"0.00018530","OBJECT_ID":"2022-083AZ","RCS_SIZE":"LARGE","MEAN_MOTION":"15.33662943"},{"SEMIMAJOR_AXIS":"6847.825","ELEMENT_SET_NO":"999","BSTAR":"-0.03968000000000","OBJECT_NAME":"STARLINK-4258","EPOCH":"2022-12-15T22:00:00.999936","REV_AT_EPOCH":"2443","EPHEMERIS_TYPE":"0","ARG_OF_PERICENTER":"38.3841","MEAN_MOTION_DOT":"-0.01135695","FILE":"3702524","DECAY_DATE":null,"APOAPSIS":"470.838","OBJECT_TYPE":"PAYLOAD","GP_ID":"220500819","TLE_LINE2":"2 53180  53.2174  20.8852 0001677  38.3841  57.8801 15.32053010 24436","CENTER_NAME":"EARTH","COUNTRY_CODE":"US","REF_FRAME":"TEME","NORAD_CAT_ID":"53180","MEAN_ANOMALY":"57.8801","CLASSIFICATION_TYPE":"U","TIME_SYSTEM":"UTC","MEAN_MOTION":"15.32053010","RCS_SIZE":"LARGE","TLE_LINE1":"1 53180U 22083BA  22349.91667824 -.01135695  00000-0 -39680-1 0  9994","LAUNCH_DATE":"2022-07-17","ECCENTRICITY":"0.00016770","OBJECT_ID":"2022-083BA","INCLINATION":"53.2174","PERIAPSIS":"468.542","MEAN_ELEMENT_THEORY":"SGP4","PERIOD":"93.992","RA_OF_ASC_NODE":"20.8852","MEAN_MOTION_DDOT":"0.0000000000000","SITE":"AFETR"},{"INCLINATION":"53.2174","MEAN_ELEMENT_THEORY":"SGP4","PERIAPSIS":"467.939","MEAN_MOTION_DDOT":"0.0000000000000","SITE":"AFETR","RA_OF_ASC_NODE":"20.8718","PERIOD":"93.978","TIME_SYSTEM":"UTC","MEAN_ANOMALY":"60.4362","CLASSIFICATION_TYPE":"U","ECCENTRICITY":"0.00015850","TLE_LINE1":"1 53181U 22083BB  22349.91667824 -.01135828  00000-0 -39407-1 0  9990","LAUNCH_DATE":"2022-07-17","OBJECT_ID":"2022-083BB","RCS_SIZE":"LARGE","MEAN_MOTION":"15.32276512","OBJECT_TYPE":"PAYLOAD","GP_ID":"220531294","TLE_LINE2":"2 53181  53.2174  20.8718 0001585  42.9529  60.4362 15.32276512  1307","REF_FRAME":"TEME","NORAD_CAT_ID":"53181","COUNTRY_CODE":"US","CENTER_NAME":"EARTH","BSTAR":"-0.03940700000000","OBJECT_NAME":"STARLINK-4273","EPOCH":"2022-12-15T22:00:00.999936","SEMIMAJOR_AXIS":"6847.159","ELEMENT_SET_NO":"999","FILE":"3702726","MEAN_MOTION_DOT":"-0.01135828","DECAY_DATE":null,"APOAPSIS":"470.109","REV_AT_EPOCH":"130","EPHEMERIS_TYPE":"0","ARG_OF_PERICENTER":"42.9529"}];
